CCSDS_OMM_VERS = 2.0
CREATION_DATE  = 
ORIGINATOR     = 

OBJECT_NAME    = STARLINK-36515
OBJECT_ID      = 2026-005AC
CENTER_NAME    = EARTH
REF_FRAME      = TEME
TIME_SYSTEM    = UTC
MEAN_ELEMENT_THEORY = SGP/SGP4

EPOCH          = 2026-02-06T12:52:12.465696
MEAN_MOTION    = 15.50582714
ECCENTRICITY   = .000151
INCLINATION    = 42.9998
RA_OF_ASC_NODE = 56.3722
ARG_OF_PERICENTER = 262.0623
MEAN_ANOMALY   = 98.0066

EPHEMERIS_TYPE = 0
CLASSIFICATION_TYPE = U
NORAD_CAT_ID   = 67430
ELEMENT_SET_NO = 999
REV_AT_EPOCH   = 389
BSTAR          = .14614E-2
MEAN_MOTION_DOT = .86355E-3
MEAN_MOTION_DDOT = 0

CCSDS_OMM_VERS = 2.0
CREATION_DATE  = 
ORIGINATOR     = 

OBJECT_NAME    = STARLINK-36443
OBJECT_ID      = 2026-005AD
CENTER_NAME    = EARTH
REF_FRAME      = TEME
TIME_SYSTEM    = UTC
MEAN_ELEMENT_THEORY = SGP/SGP4

EPOCH          = 2026-02-06T11:17:58.006464
MEAN_MOTION    = 15.50589941
ECCENTRICITY   = .00014056
INCLINATION    = 43.0004
RA_OF_ASC_NODE = 56.7384
ARG_OF_PERICENTER = 276.4311
MEAN_ANOMALY   = 83.6389

EPHEMERIS_TYPE = 0
CLASSIFICATION_TYPE = U
NORAD_CAT_ID   = 67431
ELEMENT_SET_NO = 999
REV_AT_EPOCH   = 389
BSTAR          = .16010569E-2
MEAN_MOTION_DOT = .94766E-3
MEAN_MOTION_DDOT = 0

CCSDS_OMM_VERS = 2.0
CREATION_DATE  = 
ORIGINATOR     = 

OBJECT_NAME    = STARLINK-36460
OBJECT_ID      = 2026-005AE
CENTER_NAME    = EARTH
REF_FRAME      = TEME
TIME_SYSTEM    = UTC
MEAN_ELEMENT_THEORY = SGP/SGP4

EPOCH          = 2026-02-06T12:50:13.846272
MEAN_MOTION    = 15.50585473
ECCENTRICITY   = .0001531
INCLINATION    = 42.9999
RA_OF_ASC_NODE = 56.3601
ARG_OF_PERICENTER = 254.2963
MEAN_ANOMALY   = 105.7728

EPHEMERIS_TYPE = 0
CLASSIFICATION_TYPE = U
NORAD_CAT_ID   = 67432
ELEMENT_SET_NO = 999
REV_AT_EPOCH   = 389
BSTAR          = .14219E-2
MEAN_MOTION_DOT = .83994E-3
MEAN_MOTION_DDOT = 0

CCSDS_OMM_VERS = 2.0
CREATION_DATE  = 
ORIGINATOR     = 

OBJECT_NAME    = YAOGAN-50 01
OBJECT_ID      = 2026-006A
CENTER_NAME    = EARTH
REF_FRAME      = TEME
TIME_SYSTEM    = UTC
MEAN_ELEMENT_THEORY = SGP/SGP4

EPOCH          = 2026-02-06T13:55:34.389696
MEAN_MOTION    = 13.83241433
ECCENTRICITY   = .0000733
INCLINATION    = 142.0319
RA_OF_ASC_NODE = 304.6109
ARG_OF_PERICENTER = 264.3893
MEAN_ANOMALY   = 95.6743

EPHEMERIS_TYPE = 0
CLASSIFICATION_TYPE = U
NORAD_CAT_ID   = 67433
ELEMENT_SET_NO = 999
REV_AT_EPOCH   = 334
BSTAR          = .17514E-3
MEAN_MOTION_DOT = .382E-5
MEAN_MOTION_DDOT = 0

CCSDS_OMM_VERS = 2.0
CREATION_DATE  = 
ORIGINATOR     = 

OBJECT_NAME    = CZ-6A R/B
OBJECT_ID      = 2026-006B
CENTER_NAME    = EARTH
REF_FRAME      = TEME
TIME_SYSTEM    = UTC
MEAN_ELEMENT_THEORY = SGP/SGP4

EPOCH          = 2026-02-06T06:38:48.371136
MEAN_MOTION    = 14.62307036
ECCENTRICITY   = .0203581
INCLINATION    = 142.0436
RA_OF_ASC_NODE = 317.8823
ARG_OF_PERICENTER = 255.4720
MEAN_ANOMALY   = 102.3356

EPHEMERIS_TYPE = 0
CLASSIFICATION_TYPE = U
NORAD_CAT_ID   = 67434
ELEMENT_SET_NO = 999
REV_AT_EPOCH   = 347
BSTAR          = .24367E-3
MEAN_MOTION_DOT = .2009E-4
MEAN_MOTION_DDOT = 0

CCSDS_OMM_VERS = 2.0
CREATION_DATE  = 
ORIGINATOR     = 

OBJECT_NAME    = HULIANWANG DIGUI-137
OBJECT_ID      = 2026-007A
CENTER_NAME    = EARTH
REF_FRAME      = TEME
TIME_SYSTEM    = UTC
MEAN_ELEMENT_THEORY = SGP/SGP4

EPOCH          = 2026-02-05T21:08:07.471392
MEAN_MOTION    = 13.76593365
ECCENTRICITY   = .0000579
INCLINATION    = 50.0142
RA_OF_ASC_NODE = 202.3826
ARG_OF_PERICENTER = 45.0466
MEAN_ANOMALY   = 315.0474

EPHEMERIS_TYPE = 0
CLASSIFICATION_TYPE = U
NORAD_CAT_ID   = 67435
ELEMENT_SET_NO = 999
REV_AT_EPOCH   = 323
BSTAR          = .15997E-3
MEAN_MOTION_DOT = .17E-6
MEAN_MOTION_DDOT = 0

CCSDS_OMM_VERS = 2.0
CREATION_DATE  = 
ORIGINATOR     = 

OBJECT_NAME    = HULIANWANG DIGUI-138
OBJECT_ID      = 2026-007B
CENTER_NAME    = EARTH
REF_FRAME      = TEME
TIME_SYSTEM    = UTC
MEAN_ELEMENT_THEORY = SGP/SGP4

EPOCH          = 2026-02-05T21:15:56.611296
MEAN_MOTION    = 13.76232388
ECCENTRICITY   = .0000983
INCLINATION    = 50.0095
RA_OF_ASC_NODE = 202.4131
ARG_OF_PERICENTER = 37.3200
MEAN_ANOMALY   = 322.7760

EPHEMERIS_TYPE = 0
CLASSIFICATION_TYPE = U
NORAD_CAT_ID   = 67436
ELEMENT_SET_NO = 999
REV_AT_EPOCH   = 323
BSTAR          = .15663E-3
MEAN_MOTION_DOT = .12E-6
MEAN_MOTION_DDOT = 0

CCSDS_OMM_VERS = 2.0
CREATION_DATE  = 
ORIGINATOR     = 

OBJECT_NAME    = HULIANWANG DIGUI-139
OBJECT_ID      = 2026-007C
CENTER_NAME    = EARTH
REF_FRAME      = TEME
TIME_SYSTEM    = UTC
MEAN_ELEMENT_THEORY = SGP/SGP4

EPOCH          = 2026-02-06T09:23:38.028768
MEAN_MOTION    = 13.76139378
ECCENTRICITY   = .00002569
INCLINATION    = 50.0002
RA_OF_ASC_NODE = 200.4092
ARG_OF_PERICENTER = 48.4286
MEAN_ANOMALY   = 311.6628

EPHEMERIS_TYPE = 0
CLASSIFICATION_TYPE = U
NORAD_CAT_ID   = 67437
ELEMENT_SET_NO = 999
REV_AT_EPOCH   = 330
BSTAR          = .19328375E-3
MEAN_MOTION_DOT = .48E-6
MEAN_MOTION_DDOT = 0

CCSDS_OMM_VERS = 2.0
CREATION_DATE  = 
ORIGINATOR     = 

OBJECT_NAME    = HULIANWANG DIGUI-140
OBJECT_ID      = 2026-007D
CENTER_NAME    = EARTH
REF_FRAME      = TEME
TIME_SYSTEM    = UTC
MEAN_ELEMENT_THEORY = SGP/SGP4

EPOCH          = 2026-02-05T17:51:13.807584
MEAN_MOTION    = 13.76236204
ECCENTRICITY   = .0002852
INCLINATION    = 49.9963
RA_OF_ASC_NODE = 202.9792
ARG_OF_PERICENTER = 211.2197
MEAN_ANOMALY   = 148.8526

EPHEMERIS_TYPE = 0
CLASSIFICATION_TYPE = U
NORAD_CAT_ID   = 67438
ELEMENT_SET_NO = 999
REV_AT_EPOCH   = 321
BSTAR          = .18195E-3
MEAN_MOTION_DOT = .37E-6
MEAN_MOTION_DDOT = 0

CCSDS_OMM_VERS = 2.0
CREATION_DATE  = 
ORIGINATOR     = 

OBJECT_NAME    = HULIANWANG DIGUI-141
OBJECT_ID      = 2026-007E
CENTER_NAME    = EARTH
REF_FRAME      = TEME
TIME_SYSTEM    = UTC
MEAN_ELEMENT_THEORY = SGP/SGP4

EPOCH          = 2026-02-05T17:34:04.870848
MEAN_MOTION    = 13.76973880
ECCENTRICITY   = .0001299
INCLINATION    = 49.9987
RA_OF_ASC_NODE = 202.9119
ARG_OF_PERICENTER = 218.1167
MEAN_ANOMALY   = 141.9634

EPHEMERIS_TYPE = 0
CLASSIFICATION_TYPE = U
NORAD_CAT_ID   = 67439
ELEMENT_SET_NO = 999
REV_AT_EPOCH   = 321
BSTAR          = .16055E-3
MEAN_MOTION_DOT = .18E-6
MEAN_MOTION_DDOT = 0

CCSDS_OMM_VERS = 2.0
CREATION_DATE  = 
ORIGINATOR     = 

OBJECT_NAME    = HULIANWANG DIGUI-142
OBJECT_ID      = 2026-007F
CENTER_NAME    = EARTH
REF_FRAME      = TEME
TIME_SYSTEM    = UTC
MEAN_ELEMENT_THEORY = SGP/SGP4

EPOCH          = 2026-02-06T14:24:02.338848
MEAN_MOTION    = 13.76211146
ECCENTRICITY   = .0002602
INCLINATION    = 50.0084
RA_OF_ASC_NODE = 199.5636
ARG_OF_PERICENTER = 349.6156
MEAN_ANOMALY   = 10.4682

EPHEMERIS_TYPE = 0
CLASSIFICATION_TYPE = U
NORAD_CAT_ID   = 67440
ELEMENT_SET_NO = 999
REV_AT_EPOCH   = 333
BSTAR          = .31531E-5
MEAN_MOTION_DOT = -.138E-5
MEAN_MOTION_DDOT = 0

CCSDS_OMM_VERS = 2.0
CREATION_DATE  = 
ORIGINATOR     = 

OBJECT_NAME    = HULIANWANG DIGUI-143
OBJECT_ID      = 2026-007G
CENTER_NAME    = EARTH
REF_FRAME      = TEME
TIME_SYSTEM    = UTC
MEAN_ELEMENT_THEORY = SGP/SGP4

EPOCH          = 2026-02-05T17:25:05.089440
MEAN_MOTION    = 13.77546602
ECCENTRICITY   = .00019681
INCLINATION    = 50.0043
RA_OF_ASC_NODE = 202.9091
ARG_OF_PERICENTER = 333.4501
MEAN_ANOMALY   = 26.6291

EPHEMERIS_TYPE = 0
CLASSIFICATION_TYPE = U
NORAD_CAT_ID   = 67441
ELEMENT_SET_NO = 999
REV_AT_EPOCH   = 321
BSTAR          = .15813277E-3
MEAN_MOTION_DOT = .17E-6
MEAN_MOTION_DDOT = 0

