STARLINK-36515          
1 67430U 26005AC  26037.53625539  .00086355  00000+0  14614-2 0  9993
2 67430  42.9998  56.3722 0001510 262.0623  98.0066 15.50582714  3893
STARLINK-36443          
1 67431U 26005AD  26037.47081026  .00094766  00000+0  16011-2 0  9992
2 67431  43.0004  56.7384 0001405 276.4311  83.6389 15.50589941  3895
STARLINK-36460          
1 67432U 26005AE  26037.53488248  .00083994  00000+0  14219-2 0  9996
2 67432  42.9999  56.3601 0001531 254.2963 105.7728 15.50585473  3891
YAOGAN-50 01            
1 67433U 26006A   26037.58025914  .00000382  00000+0  17514-3 0  9992
2 67433 142.0319 304.6109 0000733 264.3893  95.6743 13.83241433  3342
CZ-6A R/B               
1 67434U 26006B   26037.27694874  .00002009  00000+0  24367-3 0  9998
2 67434 142.0436 317.8823 0203581 255.4720 102.3356 14.62307036  3478
HULIANWANG DIGUI-137    
1 67435U 26007A   26036.88064203  .00000017  00000+0  15997-3 0  9999
2 67435  50.0142 202.3826 0000579  45.0466 315.0474 13.76593365  3238
HULIANWANG DIGUI-138    
1 67436U 26007B   26036.88607189  .00000012  00000+0  15663-3 0  9991
2 67436  50.0095 202.4131 0000983  37.3200 322.7760 13.76232388  3233
HULIANWANG DIGUI-139    
1 67437U 26007C   26037.39141237  .00000048  00000+0  19328-3 0  9997
2 67437  50.0002 200.4092 0000256  48.4286 311.6628 13.76139378  3309
HULIANWANG DIGUI-140    
1 67438U 26007D   26036.74390981  .00000037  00000+0  18195-3 0  9997
2 67438  49.9963 202.9792 0002852 211.2197 148.8526 13.76236204  3215
HULIANWANG DIGUI-141    
1 67439U 26007E   26036.73200082  .00000018  00000+0  16055-3 0  9991
2 67439  49.9987 202.9119 0001299 218.1167 141.9634 13.76973880  3214
HULIANWANG DIGUI-142    
1 67440U 26007F   26037.60002707 -.00000138  00000+0  31531-5 0  9996
2 67440  50.0084 199.5636 0002601 349.6156  10.4682 13.76211146  3334
HULIANWANG DIGUI-143    
1 67441U 26007G   26036.72575335  .00000017  00000+0  15813-3 0  9999
2 67441  50.0043 202.9091 0001968 333.4501  26.6291 13.77546602  3215
